COSMOS 2588             
1 64095U 25109A   26068.81179522  .00009169  00000+0  32611-3 0  9998
2 64095  72.9704  73.5401 0005019 308.6780  51.3966 15.29122656 44425
STARLINK-35350          
1 66187U 25243L   26068.71342950  .00027287  00000+0  93008-3 0  9995
2 66187  53.1578 245.4147 0000871  89.8778 270.2322 15.30198438 20652
